#cP2015  1  2  0  0  0.00000000      97 d+D   IGb08 FIT AIUB
## 1825 432000.00000000   900.00000000 57024 0.0000000000000
+   68   G01G02G03G04G05G06G07G08G09G10G11G12G13G14G15G16G17
+        G18G19G20G21G22G23G24G25G26G27G28G29G30G31G32R01R02
+        R03R04R05R06R07R08R09R10R11R12R13R14R15R16R17R18R19
+        R20R21R22R23R24E11E12E19C06C07C08C09C10C11C12C14J01
+          0  0  0  0  0  0  0  0  0  0  0  0  0  0  0  0  0
++         4  5  5  5  4  4  7  6  5  5  6  5  5  5  5  5  6
++         5  6  4  5  4  5  4  5  5  5  5  7  5  7  5  6  5
++         6  6  6  5  6  6  6  6  7  7  7  6  6  6  7  5  6
++         7  7  7  7  6  6  6  7  6  6  9  6  6  4  4  4  4
++         0  0  0  0  0  0  0  0  0  0  0  0  0  0  0  0  0
%c M  cc GPS ccc cccc cccc cccc cccc ccccc ccccc ccccc ccccc
%c cc cc ccc ccc cccc cccc cccc cccc ccccc ccccc ccccc ccccc
%f  1.2500000  1.025000000  0.00000000000  0.000000000000000
%f  0.0000000  0.000000000  0.00000000000  0.000000000000000
%i    0    0    0    0      0      0      0      0         0
%i    0    0    0    0      0      0      0      0         0
/* CODE MGEX ORBIT SOLUTION                                 
/* FOR DOY 15002                                            
/* INCLUDING ESTIMATED SATELLITE CLOCKS                     
/* PCV:IGS08      OL/AL:FES2004  NONE     YN ORB:CoN CLK:CoN
*  2015  1  3  0  0  0.00000000
PG01 -22920.792807 -13305.267498   2751.198144 999999.999999
PG02   7596.306478  19473.918438  16985.659978 999999.999999
PG03 -13253.133281 -11453.112230  19957.171785 999999.999999
PG04 -18026.074060 -18340.313928  -7487.212776 999999.999999
PG05   3012.212521  25516.948806  -6406.056430 999999.999999
PG06  -7055.740181  13523.448617  21732.410614 999999.999999
PG07 -22359.656871  -4233.309946 -13889.499294 999999.999999
PG08 -11784.056445 -20913.284641  12217.900832 999999.999999
PG09 -24688.873359   6275.996296   7530.874779 999999.999999
PG10  -9405.041534  22106.206719  10465.994143 999999.999999
PG11 -22454.832530 -12381.424630  -7733.800557 999999.999999
PG12  10835.222446  15141.863213  18950.891399 999999.999999
PG13  -1178.834628  15869.853203 -21473.615202 999999.999999
PG14  19312.864620 -15187.848158  10133.390612 999999.999999
PG15  16128.126847   7840.465941 -19761.434765 999999.999999
PG16  -1064.456191 -25496.157953  -6690.309279 999999.999999
PG17 -20211.341975  15022.625187   8353.662547 999999.999999
PG18  15041.289499  -9285.545568 -19267.677234 999999.999999
PG19 -10584.015876 -11832.486499 -21530.326093 999999.999999
PG20 -15838.808566  -2174.089373  21058.902500 999999.999999
PG21  20279.843093  -1441.173309 -16626.374861 999999.999999
PG22  10142.856723 -21290.157774 -11837.216811 999999.999999
PG23 -21370.203573  -2416.184587  15987.174692 999999.999999
PG24  22117.550702  14831.326598   -459.877507 999999.999999
PG25  14806.651045    615.559354  21962.256751 999999.999999
PG26   2239.084632  15310.133108 -22231.263765 999999.999999
PG27    769.006238 -16432.936156 -20845.464139 999999.999999
PG28 -12406.197208  17442.956556 -15028.864582 999999.999999
PG29  24394.224661  -2878.628871  10082.611034 999999.999999
PG30 -16110.773120   5559.923543 -20381.616569 999999.999999
PG31   4953.800168 -14551.307290  21767.817523 999999.999999
PG32  -5719.548327 -22916.144927  12672.338411 999999.999999
PR01  -8887.783056  -7358.337694  22744.755996 999999.999999
PR02 -13899.291193  11117.177883  18314.033691 999999.999999
PR03 -10920.590078  22882.151249   2930.843699 999999.999999
PR04  -1271.528828  21090.951530 -14287.875476 999999.999999
PR05   9002.666241   7151.532857 -22784.422649 999999.999999
PR06  14028.516510 -11740.722501 -17783.190069 999999.999999
PR07  10826.604224 -22927.694516  -2681.136067 999999.999999
PR08   1515.845932 -21279.463508  14044.537923 999999.999999
PR09  13698.525788   1498.200136  21474.421734 999999.999999
PR10   1961.460379 -13442.888229  21593.636678 999999.999999
PR11 -10983.731185 -21075.519044   9154.685444 999999.999999
PR12 -17615.843618 -16228.550535  -9017.641065 999999.999999
PR13 -13466.855771  -1254.086572 -21638.446372 999999.999999
PR14  -1401.451293  13956.090779 -21300.677963 999999.999999
PR15  10889.414086  21181.001399  -9264.485431 999999.999999
PR16  17598.824580  15614.338295   9725.742560 999999.999999
PR17 -14565.614624  10329.380568  18224.524734 999999.999999
PR18   3971.610193  10343.287898  22985.077783 999999.999999
PR19  21623.469018   3664.644507  13032.261121 999999.999999
PR20  24672.754944  -4716.885575  -4280.151663 999999.999999
PR21  14738.824321 -10362.932816 -18070.527967 999999.999999
PR22  -3952.082969 -10291.216208 -23007.355305 999999.999999
PR23 -20874.907834  -3993.663876 -14106.060945 999999.999999
PR24 -25093.588257   4099.673426   2028.965758 999999.999999
PE11  18222.297582  12178.980888  19895.667722 999999.999999
PE12  -1456.835519  17004.957288  24192.161918 999999.999999
PE19 -17999.727291  20794.143402  10948.727963 999999.999999
PC06 -15292.220240  37687.248653  11666.113968 999999.999999
PC07  -9634.367778  23457.979852 -33587.193850 999999.999999
PC08 -23012.042152  25356.632847  24507.102689 999999.999999
PC09  -6403.598936  41628.877017  -3788.630520 999999.999999
PC10   6128.407804  30772.323834 -27999.060412 999999.999999
PC11 -19139.252034  15519.279299  13013.951395 999999.999999
PC12 -26863.662803   5588.158888  -4651.272835 999999.999999
PC14 -11958.586225  23114.711283  10193.376447 999999.999999
PJ01 -25167.612092  25272.969316  27599.378147 999999.999999
EOF
